BEIDOU-2 IGSO-1 (C06)   
1 36828U 10036A   26177.90040617 -.00000057  00000+0  00000+0 0  9998
2 36828  54.3050 162.8716 0059014 225.3100 318.5305  1.00269877 58197
BEIDOU-3 M1 (C19)       
1 43001U 17069A   26177.26129809 -.00000086  00000+0  00000+0 0  9994
2 43001  56.7000  62.7851 0009932 326.5159  33.4640  1.86231403 58776
BEIDOU-3 M2 (C20)       
1 43002U 17069B   26177.20007009 -.00000086  00000+0  00000+0 0  9996
2 43002  56.6993  62.8231 0008922 352.8542   7.1754  1.86230727 58767
BEIDOU-3 M3 (C21)       
1 43208U 18018B   26175.24823940 -.00000095  00000+0  00000+0 0  9991
2 43208  56.6570  62.9189 0008331 342.5104  17.4973  1.86231188 56872
BEIDOU-3 M10 (C30)      
1 43246U 18029B   26177.54825259 -.00000098  00000+0  00000+0 0  9998
2 43246  54.1821 299.6470 0003809  41.5678 318.4573  1.86229311 56050
BEIDOU-2 G8 (C01)       
1 44231U 19027A   26178.54969082 -.00000238  00000+0  00000+0 0  9992
2 44231   1.6846  74.5245 0009873 285.0958 258.4021  1.00268721 26188
